[{"OBJECT_NAME":"DIRECTV 11","OBJECT_ID":"2008-013A","EPOCH":"2026-03-06T13:29:14.697888","MEAN_MOTION":1.00272331,"ECCENTRICITY":2.809e-5,"INCLINATION":0.0177,"RA_OF_ASC_NODE":334.4791,"ARG_OF_PERICENTER":9.1117,"MEAN_ANOMALY":283.8006,"EPHEMERIS_TYPE":0,"CLASSIFICATION_TYPE":"U","NORAD_CAT_ID":32729,"ELEMENT_SET_NO":999,"REV_AT_EPOCH":4456,"BSTAR":0,"MEAN_MOTION_DOT":-1.3e-6,"MEAN_MOTION_DDOT":0},{"OBJECT_NAME":"GALAXY 18 (G-18)","OBJECT_ID":"2008-024A","EPOCH":"2026-03-07T03:22:38.728128","MEAN_MOTION":1.00272041,"ECCENTRICITY":0.0003277,"INCLINATION":0.0226,"RA_OF_ASC_NODE":151.2991,"ARG_OF_PERICENTER":223.0665,"MEAN_ANOMALY":78.1667,"EPHEMERIS_TYPE":0,"CLASSIFICATION_TYPE":"U","NORAD_CAT_ID":32951,"ELEMENT_SET_NO":999,"REV_AT_EPOCH":4482,"BSTAR":0,"MEAN_MOTION_DOT":0,"MEAN_MOTION_DDOT":0},{"OBJECT_NAME":"INTELSAT 25 (IS-25)","OBJECT_ID":"2008-034A","EPOCH":"2026-03-07T03:29:57.895008","MEAN_MOTION":1.00272442,"ECCENTRICITY":0.000366,"INCLINATION":2.4442,"RA_OF_ASC_NODE":81.5838,"ARG_OF_PERICENTER":239.3926,"MEAN_ANOMALY":224.8766,"EPHEMERIS_TYPE":0,"CLASSIFICATION_TYPE":"U","NORAD_CAT_ID":33153,"ELEMENT_SET_NO":999,"REV_AT_EPOCH":6467,"BSTAR":0,"MEAN_MOTION_DOT":-2.26e-6,"MEAN_MOTION_DDOT":0},{"OBJECT_NAME":"GALAXY 19 (G-19)","OBJECT_ID":"2008-045A","EPOCH":"2026-03-07T03:06:38.820672","MEAN_MOTION":1.00271516,"ECCENTRICITY":0.0002779,"INCLINATION":0.0417,"RA_OF_ASC_NODE":259.342,"ARG_OF_PERICENTER":91.2652,"MEAN_ANOMALY":123.8819,"EPHEMERIS_TYPE":0,"CLASSIFICATION_TYPE":"U","NORAD_CAT_ID":33376,"ELEMENT_SET_NO":999,"REV_AT_EPOCH":6388,"BSTAR":0,"MEAN_MOTION_DOT":-1.41e-6,"MEAN_MOTION_DDOT":0},{"OBJECT_NAME":"FM-5","OBJECT_ID":"2009-034A","EPOCH":"2026-03-06T13:32:51.851328","MEAN_MOTION":1.00271518,"ECCENTRICITY":9.42e-5,"INCLINATION":0.0388,"RA_OF_ASC_NODE":271.8279,"ARG_OF_PERICENTER":304.38,"MEAN_ANOMALY":65.1156,"EPHEMERIS_TYPE":0,"CLASSIFICATION_TYPE":"U","NORAD_CAT_ID":35493,"ELEMENT_SET_NO":999,"REV_AT_EPOCH":4561,"BSTAR":0,"MEAN_MOTION_DOT":-2.04e-6,"MEAN_MOTION_DDOT":0},{"OBJECT_NAME":"INTELSAT 14 (IS-14)","OBJECT_ID":"2009-064A","EPOCH":"2026-03-07T00:00:47.950272","MEAN_MOTION":1.00272583,"ECCENTRICITY":0.0002478,"INCLINATION":0.0278,"RA_OF_ASC_NODE":90.86,"ARG_OF_PERICENTER":254.0599,"MEAN_ANOMALY":134.9971,"EPHEMERIS_TYPE":0,"CLASSIFICATION_TYPE":"U","NORAD_CAT_ID":36097,"ELEMENT_SET_NO":999,"REV_AT_EPOCH":5958,"BSTAR":0,"MEAN_MOTION_DOT":-2.76e-6,"MEAN_MOTION_DDOT":0},{"OBJECT_NAME":"INTELSAT 15 (IS-15)","OBJECT_ID":"2009-067A","EPOCH":"2026-03-07T02:20:34.548576","MEAN_MOTION":1.00270313,"ECCENTRICITY":0.0002372,"INCLINATION":0.0179,"RA_OF_ASC_NODE":162.1714,"ARG_OF_PERICENTER":199.0747,"MEAN_ANOMALY":283.8652,"EPHEMERIS_TYPE":0,"CLASSIFICATION_TYPE":"U","NORAD_CAT_ID":36106,"ELEMENT_SET_NO":999,"REV_AT_EPOCH":4020,"BSTAR":0,"MEAN_MOTION_DOT":0,"MEAN_MOTION_DDOT":0},{"OBJECT_NAME":"DIRECTV 12","OBJECT_ID":"2009-075A","EPOCH":"2026-03-07T03:06:38.820672","MEAN_MOTION":1.00272178,"ECCENTRICITY":3.43e-5,"INCLINATION":0.0057,"RA_OF_ASC_NODE":66.6807,"ARG_OF_PERICENTER":309.4395,"MEAN_ANOMALY":92.663,"EPHEMERIS_TYPE":0,"CLASSIFICATION_TYPE":"U","NORAD_CAT_ID":36131,"ELEMENT_SET_NO":999,"REV_AT_EPOCH":4553,"BSTAR":0,"MEAN_MOTION_DOT":-1.06e-6,"MEAN_MOTION_DDOT":0},{"OBJECT_NAME":"INTELSAT 16 (IS-16)","OBJECT_ID":"2010-006A","EPOCH":"2026-03-07T02:50:38.952096","MEAN_MOTION":1.002723,"ECCENTRICITY":0.0002023,"INCLINATION":0.0151,"RA_OF_ASC_NODE":103.7942,"ARG_OF_PERICENTER":252.5395,"MEAN_ANOMALY":134.9484,"EPHEMERIS_TYPE":0,"CLASSIFICATION_TYPE":"U","NORAD_CAT_ID":36397,"ELEMENT_SET_NO":999,"REV_AT_EPOCH":5863,"BSTAR":0,"MEAN_MOTION_DOT":-2.47e-6,"MEAN_MOTION_DDOT":0},{"OBJECT_NAME":"XM-5","OBJECT_ID":"2010-053A","EPOCH":"2026-03-06T23:07:57.320832","MEAN_MOTION":1.00273047,"ECCENTRICITY":0.0003437,"INCLINATION":0.0659,"RA_OF_ASC_NODE":273.4465,"ARG_OF_PERICENTER":252.9381,"MEAN_ANOMALY":230.0728,"EPHEMERIS_TYPE":0,"CLASSIFICATION_TYPE":"U","NORAD_CAT_ID":37185,"ELEMENT_SET_NO":999,"REV_AT_EPOCH":5645,"BSTAR":0,"MEAN_MOTION_DOT":-2.6e-7,"MEAN_MOTION_DDOT":0},{"OBJECT_NAME":"INTELSAT 17 (IS-17)","OBJECT_ID":"2010-065B","EPOCH":"2026-03-07T01:54:38.687616","MEAN_MOTION":1.00273025,"ECCENTRICITY":0.0002435,"INCLINATION":0.0145,"RA_OF_ASC_NODE":178.6725,"ARG_OF_PERICENTER":174.8652,"MEAN_ANOMALY":265.9039,"EPHEMERIS_TYPE":0,"CLASSIFICATION_TYPE":"U","NORAD_CAT_ID":37238,"ELEMENT_SET_NO":999,"REV_AT_EPOCH":5222,"BSTAR":0,"MEAN_MOTION_DOT":-4.0e-8,"MEAN_MOTION_DDOT":0},{"OBJECT_NAME":"INTELSAT 28 (IS-28)","OBJECT_ID":"2011-016A","EPOCH":"2026-03-07T03:29:57.895008","MEAN_MOTION":1.00271941,"ECCENTRICITY":0.0004611,"INCLINATION":1.5422,"RA_OF_ASC_NODE":83.9472,"ARG_OF_PERICENTER":263.1745,"MEAN_ANOMALY":198.5156,"EPHEMERIS_TYPE":0,"CLASSIFICATION_TYPE":"U","NORAD_CAT_ID":37392,"ELEMENT_SET_NO":999,"REV_AT_EPOCH":5226,"BSTAR":0,"MEAN_MOTION_DOT":-2.27e-6,"MEAN_MOTION_DDOT":0},{"OBJECT_NAME":"INTELSAT 18 (IS-18)","OBJECT_ID":"2011-056A","EPOCH":"2026-03-07T02:47:39.451776","MEAN_MOTION":1.00274712,"ECCENTRICITY":0.0001908,"INCLINATION":0.0352,"RA_OF_ASC_NODE":263.4567,"ARG_OF_PERICENTER":83.1742,"MEAN_ANOMALY":40.1048,"EPHEMERIS_TYPE":0,"CLASSIFICATION_TYPE":"U","NORAD_CAT_ID":37834,"ELEMENT_SET_NO":999,"REV_AT_EPOCH":5278,"BSTAR":0,"MEAN_MOTION_DOT":5.1e-7,"MEAN_MOTION_DDOT":0},{"OBJECT_NAME":"INTELSAT 22 (IS-22)","OBJECT_ID":"2012-011A","EPOCH":"2026-03-07T01:54:38.687616","MEAN_MOTION":1.00271363,"ECCENTRICITY":0.0001654,"INCLINATION":0.0084,"RA_OF_ASC_NODE":154.7123,"ARG_OF_PERICENTER":210.503,"MEAN_ANOMALY":260.3369,"EPHEMERIS_TYPE":0,"CLASSIFICATION_TYPE":"U","NORAD_CAT_ID":38098,"ELEMENT_SET_NO":999,"REV_AT_EPOCH":616,"BSTAR":0,"MEAN_MOTION_DOT":-6.1e-7,"MEAN_MOTION_DDOT":0},{"OBJECT_NAME":"INTELSAT 19 (IS-19)","OBJECT_ID":"2012-030A","EPOCH":"2026-03-07T02:43:24.857760","MEAN_MOTION":1.00272949,"ECCENTRICITY":0.0003015,"INCLINATION":0.0199,"RA_OF_ASC_NODE":139.9291,"ARG_OF_PERICENTER":209.7229,"MEAN_ANOMALY":22.0118,"EPHEMERIS_TYPE":0,"CLASSIFICATION_TYPE":"U","NORAD_CAT_ID":38356,"ELEMENT_SET_NO":999,"REV_AT_EPOCH":4942,"BSTAR":0,"MEAN_MOTION_DOT":-5.9e-7,"MEAN_MOTION_DDOT":0},{"OBJECT_NAME":"INTELSAT 20 (IS-20)","OBJECT_ID":"2012-043A","EPOCH":"2026-03-07T02:15:50.004000","MEAN_MOTION":1.00271529,"ECCENTRICITY":0.0002567,"INCLINATION":0.0208,"RA_OF_ASC_NODE":137.8238,"ARG_OF_PERICENTER":29.8463,"MEAN_ANOMALY":99.5877,"EPHEMERIS_TYPE":0,"CLASSIFICATION_TYPE":"U","NORAD_CAT_ID":38740,"ELEMENT_SET_NO":999,"REV_AT_EPOCH":4972,"BSTAR":0,"MEAN_MOTION_DOT":-2.7e-7,"MEAN_MOTION_DDOT":0},{"OBJECT_NAME":"INTELSAT 21 (IS-21)","OBJECT_ID":"2012-045A","EPOCH":"2026-03-07T03:22:28.613280","MEAN_MOTION":1.00272426,"ECCENTRICITY":0.0001854,"INCLINATION":0.0223,"RA_OF_ASC_NODE":242.3868,"ARG_OF_PERICENTER":114.3896,"MEAN_ANOMALY":160.6908,"EPHEMERIS_TYPE":0,"CLASSIFICATION_TYPE":"U","NORAD_CAT_ID":38749,"ELEMENT_SET_NO":999,"REV_AT_EPOCH":4950,"BSTAR":0,"MEAN_MOTION_DOT":-2.87e-6,"MEAN_MOTION_DDOT":0}]
