DIRECTV 11              
1 32729U 08013A   26065.56197567 -.00000130  00000+0  00000+0 0  9993
2 32729   0.0177 334.4791 0000280   9.1117 283.8006  1.00272331 44565
GALAXY 18 (G-18)        
1 32951U 08024A   26066.14072602  .00000000  00000+0  00000+0 0  9994
2 32951   0.0226 151.2991 0003277 223.0665  78.1667  1.00272041 44823
INTELSAT 25 (IS-25)     
1 33153U 08034A   26066.14580897 -.00000226  00000+0  00000+0 0  9991
2 33153   2.4442  81.5838 0003660 239.3926 224.8766  1.00272442 64675
GALAXY 19 (G-19)        
1 33376U 08045A   26066.12961598 -.00000141  00000+0  00000+0 0  9995
2 33376   0.0417 259.3420 0002779  91.2652 123.8819  1.00271516 63881
FM-5                    
1 35493U 09034A   26065.56448902 -.00000204  00000+0  00000+0 0  9992
2 35493   0.0388 271.8279 0000942 304.3800  65.1156  1.00271518 45619
INTELSAT 14 (IS-14)     
1 36097U 09064A   26066.00055498 -.00000276  00000+0  00000+0 0  9999
2 36097   0.0278  90.8600 0002478 254.0599 134.9971  1.00272583 59581
INTELSAT 15 (IS-15)     
1 36106U 09067A   26066.09762209  .00000000  00000+0  00000+0 0  9991
2 36106   0.0179 162.1714 0002372 199.0747 283.8652  1.00270313 40205
DIRECTV 12              
1 36131U 09075A   26066.12961598 -.00000106  00000+0  00000+0 0  9992
2 36131   0.0057  66.6807 0000343 309.4395  92.6630  1.00272178 45535
INTELSAT 16 (IS-16)     
1 36397U 10006A   26066.11850639 -.00000247  00000+0  00000+0 0  9990
2 36397   0.0151 103.7942 0002023 252.5395 134.9484  1.00272300 58631
XM-5                    
1 37185U 10053A   26065.96385788 -.00000026  00000+0  00000+0 0  9993
2 37185   0.0659 273.4465 0003437 252.9381 230.0728  1.00273047 56450
INTELSAT 17 (IS-17)     
1 37238U 10065B   26066.07961444 -.00000004  00000+0  00000+0 0  9993
2 37238   0.0145 178.6725 0002435 174.8652 265.9039  1.00273025 52223
INTELSAT 28 (IS-28)     
1 37392U 11016A   26066.14580897 -.00000227  00000+0  00000+0 0  9995
2 37392   1.5422  83.9472 0004611 263.1745 198.5156  1.00271941 52268
INTELSAT 18 (IS-18)     
1 37834U 11056A   26066.11642884  .00000051  00000+0  00000+0 0  9996
2 37834   0.0352 263.4567 0001908  83.1742  40.1048  1.00274712 52786
INTELSAT 22 (IS-22)     
1 38098U 12011A   26066.07961444 -.00000061  00000+0  00000+0 0  9994
2 38098   0.0084 154.7123 0001654 210.5030 260.3369  1.00271363  6167
INTELSAT 19 (IS-19)     
1 38356U 12030A   26066.11348215 -.00000059  00000+0  00000+0 0  9999
2 38356   0.0199 139.9291 0003015 209.7229  22.0118  1.00272949 49427
INTELSAT 20 (IS-20)     
1 38740U 12043A   26066.09432875 -.00000027  00000+0  00000+0 0  9998
2 38740   0.0208 137.8238 0002567  29.8463  99.5877  1.00271529 49722
INTELSAT 21 (IS-21)     
1 38749U 12045A   26066.14060895 -.00000287  00000+0  00000+0 0  9992
2 38749   0.0223 242.3868 0001854 114.3896 160.6908  1.00272426 49505
